0 FENGYUN 1C DEB
1 31524U 99025BXP 13271.46713125  .00000175  00000-0  10135-3 0  2992
2 31524 099.2257 348.2261 0293857 184.6812 174.9981 14.01409247327600
0 FENGYUN 1C DEB
1 31524U 99025BXP 13274.46588036  .00000117  00000-0  74922-4 0  3000
2 31524 099.2241 351.2596 0293672 176.4408 183.8855 14.01409878328029
0 FENGYUN 1C DEB
1 31524U 99025BXP 13284.46157577  .00000135  00000-0  82477-4 0  3018
2 31524 099.2255 001.3791 0293847 148.8782 213.0278 14.01413641329429
